[{"OBJECT_NAME":"ONEWEB-0136","OBJECT_ID":"2020-100AA","EPOCH":"2025-10-31T18:50:23.733024","MEAN_MOTION":13.12446503,"ECCENTRICITY":0.0002282,"INCLINATION":87.897,"RA_OF_ASC_NODE":36.0176,"ARG_OF_PERICENTER":103.3944,"MEAN_ANOMALY":256.7439,"EPHEMERIS_TYPE":0,"CLASSIFICATION_TYPE":"U","NORAD_CAT_ID":47282,"ELEMENT_SET_NO":999,"REV_AT_EPOCH":23470,"BSTAR":0.0013887,"MEAN_MOTION_DOT":5.12e-6,"MEAN_MOTION_DDOT":0},{"OBJECT_NAME":"ONEWEB-0137","OBJECT_ID":"2020-100AB","EPOCH":"2025-10-31T17:49:40.714176","MEAN_MOTION":13.12443542,"ECCENTRICITY":0.0001679,"INCLINATION":87.8979,"RA_OF_ASC_NODE":36.0322,"ARG_OF_PERICENTER":95.7019,"MEAN_ANOMALY":264.4301,"EPHEMERIS_TYPE":0,"CLASSIFICATION_TYPE":"U","NORAD_CAT_ID":47283,"ELEMENT_SET_NO":999,"REV_AT_EPOCH":23460,"BSTAR":-0.001035,"MEAN_MOTION_DOT":-3.6e-6,"MEAN_MOTION_DDOT":0},{"OBJECT_NAME":"ONEWEB-0138","OBJECT_ID":"2020-100AC","EPOCH":"2025-10-31T19:09:05.764896","MEAN_MOTION":13.12443488,"ECCENTRICITY":0.0001997,"INCLINATION":87.8974,"RA_OF_ASC_NODE":36.0304,"ARG_OF_PERICENTER":103.108,"MEAN_ANOMALY":257.0271,"EPHEMERIS_TYPE":0,"CLASSIFICATION_TYPE":"U","NORAD_CAT_ID":47284,"ELEMENT_SET_NO":999,"REV_AT_EPOCH":23469,"BSTAR":0.00074401,"MEAN_MOTION_DOT":2.8e-6,"MEAN_MOTION_DDOT":0},{"OBJECT_NAME":"ONEWEB-0139","OBJECT_ID":"2020-100AD","EPOCH":"2025-10-31T18:15:34.771104","MEAN_MOTION":13.12443504,"ECCENTRICITY":0.0001792,"INCLINATION":87.8968,"RA_OF_ASC_NODE":36.0274,"ARG_OF_PERICENTER":102.4122,"MEAN_ANOMALY":257.7207,"EPHEMERIS_TYPE":0,"CLASSIFICATION_TYPE":"U","NORAD_CAT_ID":47285,"ELEMENT_SET_NO":999,"REV_AT_EPOCH":23476,"BSTAR":-0.00039701,"MEAN_MOTION_DOT":-1.3e-6,"MEAN_MOTION_DDOT":0},{"OBJECT_NAME":"ONEWEB-0140","OBJECT_ID":"2020-100AE","EPOCH":"2025-10-31T18:59:44.771424","MEAN_MOTION":13.12445124,"ECCENTRICITY":0.0001883,"INCLINATION":87.8972,"RA_OF_ASC_NODE":36.0075,"ARG_OF_PERICENTER":102.5566,"MEAN_ANOMALY":257.5773,"EPHEMERIS_TYPE":0,"CLASSIFICATION_TYPE":"U","NORAD_CAT_ID":47286,"ELEMENT_SET_NO":999,"REV_AT_EPOCH":23473,"BSTAR":0.0015271,"MEAN_MOTION_DOT":5.62e-6,"MEAN_MOTION_DDOT":0},{"OBJECT_NAME":"ONEWEB-0141","OBJECT_ID":"2020-100AF","EPOCH":"2025-10-31T18:15:11.127744","MEAN_MOTION":13.12444227,"ECCENTRICITY":0.0001645,"INCLINATION":87.896,"RA_OF_ASC_NODE":36.0252,"ARG_OF_PERICENTER":91.4601,"MEAN_ANOMALY":268.6716,"EPHEMERIS_TYPE":0,"CLASSIFICATION_TYPE":"U","NORAD_CAT_ID":47287,"ELEMENT_SET_NO":999,"REV_AT_EPOCH":23471,"BSTAR":-0.00022877,"MEAN_MOTION_DOT":-7.0e-7,"MEAN_MOTION_DDOT":0},{"OBJECT_NAME":"ONEWEB-0142","OBJECT_ID":"2020-100AG","EPOCH":"2025-10-31T17:59:12.136992","MEAN_MOTION":13.12441514,"ECCENTRICITY":0.0001843,"INCLINATION":87.8965,"RA_OF_ASC_NODE":36.0476,"ARG_OF_PERICENTER":88.9229,"MEAN_ANOMALY":271.2111,"EPHEMERIS_TYPE":0,"CLASSIFICATION_TYPE":"U","NORAD_CAT_ID":47288,"ELEMENT_SET_NO":999,"REV_AT_EPOCH":23470,"BSTAR":-0.0010144,"MEAN_MOTION_DOT":-3.52e-6,"MEAN_MOTION_DDOT":0},{"OBJECT_NAME":"ONEWEB-0143","OBJECT_ID":"2020-100AH","EPOCH":"2025-10-31T18:13:01.341120","MEAN_MOTION":13.12444945,"ECCENTRICITY":0.0001727,"INCLINATION":87.8973,"RA_OF_ASC_NODE":36.0424,"ARG_OF_PERICENTER":103.1179,"MEAN_ANOMALY":257.0142,"EPHEMERIS_TYPE":0,"CLASSIFICATION_TYPE":"U","NORAD_CAT_ID":47289,"ELEMENT_SET_NO":999,"REV_AT_EPOCH":23468,"BSTAR":-0.0010451,"MEAN_MOTION_DOT":-3.63e-6,"MEAN_MOTION_DDOT":0},{"OBJECT_NAME":"ONEWEB-0144","OBJECT_ID":"2020-100AJ","EPOCH":"2025-10-31T17:33:19.498752","MEAN_MOTION":13.12441293,"ECCENTRICITY":0.0002086,"INCLINATION":87.8965,"RA_OF_ASC_NODE":36.0189,"ARG_OF_PERICENTER":97.5767,"MEAN_ANOMALY":262.5598,"EPHEMERIS_TYPE":0,"CLASSIFICATION_TYPE":"U","NORAD_CAT_ID":47290,"ELEMENT_SET_NO":999,"REV_AT_EPOCH":23460,"BSTAR":-0.00022367,"MEAN_MOTION_DOT":-6.8e-7,"MEAN_MOTION_DDOT":0},{"OBJECT_NAME":"ONEWEB-0145","OBJECT_ID":"2020-100AK","EPOCH":"2025-10-31T18:41:03.708960","MEAN_MOTION":13.12445273,"ECCENTRICITY":0.0001914,"INCLINATION":87.8967,"RA_OF_ASC_NODE":36.0447,"ARG_OF_PERICENTER":101.1349,"MEAN_ANOMALY":258.9995,"EPHEMERIS_TYPE":0,"CLASSIFICATION_TYPE":"U","NORAD_CAT_ID":47291,"ELEMENT_SET_NO":999,"REV_AT_EPOCH":23480,"BSTAR":0.0011915,"MEAN_MOTION_DOT":4.41e-6,"MEAN_MOTION_DDOT":0},{"OBJECT_NAME":"ONEWEB-0146","OBJECT_ID":"2020-100AL","EPOCH":"2025-10-31T18:36:22.925376","MEAN_MOTION":13.12446728,"ECCENTRICITY":0.0001578,"INCLINATION":87.8976,"RA_OF_ASC_NODE":36.0324,"ARG_OF_PERICENTER":112.6494,"MEAN_ANOMALY":247.4801,"EPHEMERIS_TYPE":0,"CLASSIFICATION_TYPE":"U","NORAD_CAT_ID":47292,"ELEMENT_SET_NO":999,"REV_AT_EPOCH":23471,"BSTAR":0.00094599,"MEAN_MOTION_DOT":3.53e-6,"MEAN_MOTION_DDOT":0},{"OBJECT_NAME":"ONEWEB-0147","OBJECT_ID":"2020-100AM","EPOCH":"2025-10-31T17:47:20.628672","MEAN_MOTION":13.12442892,"ECCENTRICITY":0.000203,"INCLINATION":87.8974,"RA_OF_ASC_NODE":36.017,"ARG_OF_PERICENTER":105.2792,"MEAN_ANOMALY":254.8561,"EPHEMERIS_TYPE":0,"CLASSIFICATION_TYPE":"U","NORAD_CAT_ID":47293,"ELEMENT_SET_NO":999,"REV_AT_EPOCH":23460,"BSTAR":-0.00097342,"MEAN_MOTION_DOT":-3.37e-6,"MEAN_MOTION_DDOT":0},{"OBJECT_NAME":"ONEWEB-0115","OBJECT_ID":"2021-025A","EPOCH":"2025-10-31T17:15:30.449952","MEAN_MOTION":13.13467676,"ECCENTRICITY":0.0001833,"INCLINATION":87.9039,"RA_OF_ASC_NODE":5.6208,"ARG_OF_PERICENTER":100.1564,"MEAN_ANOMALY":259.9771,"EPHEMERIS_TYPE":0,"CLASSIFICATION_TYPE":"U","NORAD_CAT_ID":48042,"ELEMENT_SET_NO":999,"REV_AT_EPOCH":22360,"BSTAR":0.00019094,"MEAN_MOTION_DOT":8.2e-7,"MEAN_MOTION_DDOT":0},{"OBJECT_NAME":"ONEWEB-0152","OBJECT_ID":"2021-025B","EPOCH":"2025-10-31T17:35:00.231648","MEAN_MOTION":13.13471172,"ECCENTRICITY":0.0001794,"INCLINATION":87.9033,"RA_OF_ASC_NODE":5.6293,"ARG_OF_PERICENTER":103.8914,"MEAN_ANOMALY":256.2415,"EPHEMERIS_TYPE":0,"CLASSIFICATION_TYPE":"U","NORAD_CAT_ID":48043,"ELEMENT_SET_NO":999,"REV_AT_EPOCH":22356,"BSTAR":-0.00060757,"MEAN_MOTION_DOT":-2.09e-6,"MEAN_MOTION_DDOT":0},{"OBJECT_NAME":"ONEWEB-0153","OBJECT_ID":"2021-025C","EPOCH":"2025-10-31T17:03:19.238976","MEAN_MOTION":13.13471715,"ECCENTRICITY":0.0001817,"INCLINATION":87.9036,"RA_OF_ASC_NODE":5.6362,"ARG_OF_PERICENTER":97.7429,"MEAN_ANOMALY":262.3906,"EPHEMERIS_TYPE":0,"CLASSIFICATION_TYPE":"U","NORAD_CAT_ID":48044,"ELEMENT_SET_NO":999,"REV_AT_EPOCH":22355,"BSTAR":0.00083711,"MEAN_MOTION_DOT":3.18e-6,"MEAN_MOTION_DDOT":0},{"OBJECT_NAME":"ONEWEB-0154","OBJECT_ID":"2021-025D","EPOCH":"2025-10-31T16:58:26.952096","MEAN_MOTION":13.13468744,"ECCENTRICITY":0.0001912,"INCLINATION":87.9035,"RA_OF_ASC_NODE":5.6332,"ARG_OF_PERICENTER":101.2097,"MEAN_ANOMALY":258.9247,"EPHEMERIS_TYPE":0,"CLASSIFICATION_TYPE":"U","NORAD_CAT_ID":48045,"ELEMENT_SET_NO":999,"REV_AT_EPOCH":22351,"BSTAR":0.00092944,"MEAN_MOTION_DOT":3.52e-6,"MEAN_MOTION_DDOT":0},{"OBJECT_NAME":"ONEWEB-0116","OBJECT_ID":"2021-025E","EPOCH":"2025-10-31T16:04:48.335232","MEAN_MOTION":13.13470027,"ECCENTRICITY":0.0001807,"INCLINATION":87.9034,"RA_OF_ASC_NODE":5.6238,"ARG_OF_PERICENTER":103.84,"MEAN_ANOMALY":256.293,"EPHEMERIS_TYPE":0,"CLASSIFICATION_TYPE":"U","NORAD_CAT_ID":48046,"ELEMENT_SET_NO":999,"REV_AT_EPOCH":22365,"BSTAR":-0.0014478,"MEAN_MOTION_DOT":-5.16e-6,"MEAN_MOTION_DDOT":0},{"OBJECT_NAME":"ONEWEB-0150","OBJECT_ID":"2021-025F","EPOCH":"2025-10-31T17:20:22.451712","MEAN_MOTION":13.13471041,"ECCENTRICITY":0.0001746,"INCLINATION":87.9042,"RA_OF_ASC_NODE":5.6086,"ARG_OF_PERICENTER":94.1982,"MEAN_ANOMALY":265.9347,"EPHEMERIS_TYPE":0,"CLASSIFICATION_TYPE":"U","NORAD_CAT_ID":48047,"ELEMENT_SET_NO":999,"REV_AT_EPOCH":22355,"BSTAR":-0.000528,"MEAN_MOTION_DOT":-1.8e-6,"MEAN_MOTION_DDOT":0},{"OBJECT_NAME":"ONEWEB-0107","OBJECT_ID":"2021-025G","EPOCH":"2025-10-31T17:22:50.049696","MEAN_MOTION":13.13469613,"ECCENTRICITY":0.0001976,"INCLINATION":87.9038,"RA_OF_ASC_NODE":5.6054,"ARG_OF_PERICENTER":92.7693,"MEAN_ANOMALY":267.3663,"EPHEMERIS_TYPE":0,"CLASSIFICATION_TYPE":"U","NORAD_CAT_ID":48048,"ELEMENT_SET_NO":999,"REV_AT_EPOCH":22353,"BSTAR":-0.00016018,"MEAN_MOTION_DOT":-4.6e-7,"MEAN_MOTION_DDOT":0},{"OBJECT_NAME":"ONEWEB-0101","OBJECT_ID":"2021-025H","EPOCH":"2025-10-31T16:29:11.724864","MEAN_MOTION":13.13472297,"ECCENTRICITY":0.0002031,"INCLINATION":87.9026,"RA_OF_ASC_NODE":5.6488,"ARG_OF_PERICENTER":99.395,"MEAN_ANOMALY":260.7409,"EPHEMERIS_TYPE":0,"CLASSIFICATION_TYPE":"U","NORAD_CAT_ID":48049,"ELEMENT_SET_NO":999,"REV_AT_EPOCH":22350,"BSTAR":0.00034946,"MEAN_MOTION_DOT":1.4e-6,"MEAN_MOTION_DDOT":0},{"OBJECT_NAME":"ONEWEB-0113","OBJECT_ID":"2021-025J","EPOCH":"2025-10-31T17:16:19.409376","MEAN_MOTION":13.13980905,"ECCENTRICITY":0.0001618,"INCLINATION":87.9035,"RA_OF_ASC_NODE":5.5767,"ARG_OF_PERICENTER":102.1292,"MEAN_ANOMALY":258.0019,"EPHEMERIS_TYPE":0,"CLASSIFICATION_TYPE":"U","NORAD_CAT_ID":48050,"ELEMENT_SET_NO":999,"REV_AT_EPOCH":22360,"BSTAR":4.1433e-5,"MEAN_MOTION_DOT":2.8e-7,"MEAN_MOTION_DDOT":0},{"OBJECT_NAME":"ONEWEB-0112","OBJECT_ID":"2021-025K","EPOCH":"2025-10-31T17:30:07.799616","MEAN_MOTION":13.1346844,"ECCENTRICITY":0.0001795,"INCLINATION":87.9043,"RA_OF_ASC_NODE":5.6018,"ARG_OF_PERICENTER":97.7319,"MEAN_ANOMALY":262.4014,"EPHEMERIS_TYPE":0,"CLASSIFICATION_TYPE":"U","NORAD_CAT_ID":48051,"ELEMENT_SET_NO":999,"REV_AT_EPOCH":22360,"BSTAR":-0.00048291,"MEAN_MOTION_DOT":-1.64e-6,"MEAN_MOTION_DDOT":0},{"OBJECT_NAME":"ONEWEB-0156","OBJECT_ID":"2021-025L","EPOCH":"2025-10-31T17:42:19.083168","MEAN_MOTION":13.13471306,"ECCENTRICITY":0.000188,"INCLINATION":87.9041,"RA_OF_ASC_NODE":5.6116,"ARG_OF_PERICENTER":94.735,"MEAN_ANOMALY":265.3994,"EPHEMERIS_TYPE":0,"CLASSIFICATION_TYPE":"U","NORAD_CAT_ID":48052,"ELEMENT_SET_NO":999,"REV_AT_EPOCH":22358,"BSTAR":-0.00093032,"MEAN_MOTION_DOT":-3.27e-6,"MEAN_MOTION_DDOT":0},{"OBJECT_NAME":"ONEWEB-0161","OBJECT_ID":"2021-025M","EPOCH":"2025-10-31T17:05:46.195872","MEAN_MOTION":13.13471121,"ECCENTRICITY":0.0001896,"INCLINATION":87.9029,"RA_OF_ASC_NODE":5.6343,"ARG_OF_PERICENTER":94.0076,"MEAN_ANOMALY":266.1269,"EPHEMERIS_TYPE":0,"CLASSIFICATION_TYPE":"U","NORAD_CAT_ID":48053,"ELEMENT_SET_NO":999,"REV_AT_EPOCH":22351,"BSTAR":0.00086744,"MEAN_MOTION_DOT":3.3e-6,"MEAN_MOTION_DDOT":0}]
